OBJECT_NAME,OBJECT_ID,EPOCH,MEAN_MOTION,ECCENTRICITY,INCLINATION,RA_OF_ASC_NODE,ARG_OF_PERICENTER,MEAN_ANOMALY,EPHEMERIS_TYPE,CLASSIFICATION_TYPE,NORAD_CAT_ID,ELEMENT_SET_NO,REV_AT_EPOCH,BSTAR,MEAN_MOTION_DOT,MEAN_MOTION_DDOT
INTELSAT 35E (IS-35E),2017-041A,2026-06-14T16:21:53.810784,1.00268183,.00015334,0.0256,11.6725,69.5322,32.7564,0,U,42818,999,3279,0,0,0
COSMOS 2520,2017-046A,2026-06-14T21:52:35.848128,1.00270588,.0001204,0.0492,86.3469,36.5461,153.4587,0,U,42907,999,3237,0,.142E-5,0
TDRS 13,2017-047A,2026-06-15T04:27:06.183072,1.00271400,.0014419,3.4512,2.6876,106.3401,209.7848,0,U,42915,999,3232,0,-.98E-6,0
QZS-3 (MICHIBIKI-3),2017-048A,2026-06-15T00:05:38.738112,1.00263823,.0002451,0.0278,154.0411,298.4393,299.1623,0,U,42917,999,3223,0,0,0
AMAZONAS 5,2017-053A,2026-06-15T03:34:38.725248,1.00269145,.0002056,0.0323,325.4838,64.8441,225.7689,0,U,42934,999,3202,0,-.278E-5,0
ASIASAT 9,2017-057A,2026-06-15T05:05:02.544864,1.00263854,.0002457,0.0415,46.9398,30.6177,24.3546,0,U,42942,999,3184,0,0,0
INTELSAT 37E (IS-37E),2017-059A,2026-06-15T04:25:13.863072,1.00271875,.0002337,0.0189,27.4261,79.1326,205.2347,0,U,42950,999,3204,0,-.136E-5,0
BSAT-4A,2017-059B,2026-06-14T19:36:38.641824,1.00269277,.00038622,0.0440,28.2570,39.4526,239.3850,0,U,42951,999,3177,0,-.344E-5,0
QZS-4 (MICHIBIKI-4),2017-062A,2026-06-14T08:35:20.737824,1.00251032,.07452491,40.1096,343.5183,271.7117,273.4729,0,U,42965,999,3177,0,-.335E-5,0
SES-11 (ECHOSTAR 105),2017-063A,2026-06-15T04:06:38.774304,1.00270584,.000271,0.0186,329.0486,99.1743,151.9540,0,U,42967,999,3170,0,-.85E-6,0
KOREASAT 5A,2017-067A,2026-06-15T02:42:38.500704,1.00271739,.0000546,0.0110,12.2875,78.5882,326.3402,0,U,42984,999,3150,0,-.354E-5,0
ALCOMSAT 1,2017-078A,2026-06-15T04:23:14.053056,1.00269564,.0002226,0.0374,265.9097,166.5951,231.9786,0,U,43039,999,3127,0,-.182E-5,0
SBIRS GEO-3 (USA 282),2018-009A,2026-06-15T03:44:58.488864,1.00271642,.000179,2.1828,12.0065,64.7553,83.5275,0,U,43162,999,3082,0,.131E-5,0
AL YAH 3,2018-012A,2026-06-15T04:24:36.423360,1.00270010,.0003857,1.5468,83.1309,359.8618,226.5206,0,U,43174,999,3082,0,-.153E-5,0
SES-14,2018-012B,2026-06-15T00:51:31.068000,1.00270654,.0000786,0.0183,21.7779,58.4421,148.4857,0,U,43175,999,700,0,-.274E-5,0
GOES 17,2018-022A,2026-06-15T03:58:38.588160,1.00269976,.0000396,0.9323,85.7475,32.7385,115.1280,0,U,43226,999,3040,0,-.179E-5,0
HISPASAT 30W-6,2018-023A,2026-06-15T04:21:44.197056,1.00270229,.0005662,0.0457,41.7177,28.0579,229.1271,0,U,43228,999,3038,0,-.212E-5,0
SUPERBIRD-B3,2018-033A,2026-06-14T22:25:55.151904,1.00271345,.0000889,0.0088,317.1838,115.8956,328.6311,0,U,43271,999,3003,0,-.87E-6,0
HYLAS 4,2018-033B,2026-06-15T00:55:30.682848,1.00269493,.0000824,0.0164,19.3128,66.7769,157.6197,0,U,43272,999,3004,0,-.229E-5,0
IRNSS-1I,2018-035A,2026-06-14T20:12:28.276416,1.00271722,.00178583,28.7494,74.2326,181.5121,5.3509,0,U,43286,999,3005,0,.64E-6,0
USA 283,2018-036A,2026-06-12T17:15:31.472064,1.00273175,.0000436,0.0199,335.2360,187.5113,131.2828,0,U,43339,999,2524,0,0,0
COSMOS 2526,2018-037A,2026-06-15T05:06:54.864864,1.00271278,.0000681,0.0275,34.0311,173.8705,260.3945,0,U,43432,999,2994,0,-.341E-5,0
APSTAR-6C,2018-041A,2026-06-15T00:17:33.592704,1.00269767,.0001011,0.0241,1.9549,337.9819,61.7660,0,U,43450,999,2978,0,-.313E-5,0
BANGABANDHUSAT-1,2018-044A,2026-06-15T00:13:38.666784,1.00270855,.0001598,0.0155,59.0426,20.9475,305.8241,0,U,43463,999,2968,0,-.358E-5,0
SES-12,2018-049A,2026-06-15T01:07:21.700416,1.00267586,.0001195,0.0154,12.7022,289.5511,72.9334,0,U,43488,999,2939,0,-.264E-5,0
FENGYUN 2H,2018-050A,2026-06-14T23:45:04.040640,1.00269792,.0001962,3.0244,79.0976,137.5346,122.3352,0,U,43491,999,2941,0,-.127E-5,0
BEIDOU-2 IGSO-7,2018-057A,2026-06-14T22:10:34.125312,1.00251741,.0105015,55.1939,163.0777,237.9971,304.9149,0,U,43539,999,2910,0,-.11E-6,0
TELSTAR 19V,2018-059A,2026-06-15T03:34:38.725248,1.00269698,.0002432,0.0198,164.3699,311.1715,138.5526,0,U,43562,999,2912,0,-.275E-5,0
TELKOM 4 (MERAH PUTIH),2018-064A,2026-06-15T00:52:38.625888,1.00270247,.0001223,0.0183,63.1780,51.6291,269.6780,0,U,43587,999,2885,0,-.339E-5,0
TELSTAR 18V,2018-069A,2026-06-14T18:53:42.897120,1.00270067,.00016127,0.0122,311.2047,128.7151,244.5797,0,U,43611,999,2861,0,-.288E-5,0
AZERSPACE 2 (IS-38),2018-074A,2026-06-15T00:14:28.542912,1.00269681,.0001192,0.0143,338.7150,102.8293,230.4875,0,U,43632,999,2842,0,.142E-5,0
HORIZONS-3E,2018-074B,2026-06-14T15:37:13.094400,1.00270601,.00009666,0.0187,163.9480,106.2603,36.0409,0,U,43633,999,2831,0,-.24E-6,0
